[{"OBJECT_NAME":"ONEWEB-0349","OBJECT_ID":"2021-090C","EPOCH":"2026-03-09T16:24:00.057600","MEAN_MOTION":13.20771577,"ECCENTRICITY":0.00015938,"INCLINATION":87.917,"RA_OF_ASC_NODE":294.309,"ARG_OF_PERICENTER":86.4894,"MEAN_ANOMALY":273.6422,"EPHEMERIS_TYPE":0,"CLASSIFICATION_TYPE":"U","NORAD_CAT_ID":49281,"ELEMENT_SET_NO":999,"REV_AT_EPOCH":21669,"BSTAR":-0.00063391769,"MEAN_MOTION_DOT":-2.45e-6,"MEAN_MOTION_DDOT":0},{"OBJECT_NAME":"SL-14 DEB","OBJECT_ID":"1991-056BA","EPOCH":"2026-03-09T09:01:39.905184","MEAN_MOTION":13.20381684,"ECCENTRICITY":0.00056112,"INCLINATION":82.5194,"RA_OF_ASC_NODE":197.6003,"ARG_OF_PERICENTER":1.9774,"MEAN_ANOMALY":358.1371,"EPHEMERIS_TYPE":0,"CLASSIFICATION_TYPE":"U","NORAD_CAT_ID":45312,"ELEMENT_SET_NO":999,"REV_AT_EPOCH":29138,"BSTAR":0.0014704192,"MEAN_MOTION_DOT":6.07e-6,"MEAN_MOTION_DDOT":0}]
